<?xml version="1.0" encoding="utf-8" ?>
<kml xmlns="http://www.opengis.net/kml/2.2">
<Document id="root_doc">
<Schema name="study_areastudy_area_fullshp" id="study_areastudy_area_fullshp">
	<SimpleField name="id" type="string"></SimpleField>
	<SimpleField name="descriptio" type="string"></SimpleField>
	<SimpleField name="timestamp" type="string"></SimpleField>
	<SimpleField name="begin" type="string"></SimpleField>
	<SimpleField name="end" type="string"></SimpleField>
	<SimpleField name="altitudeMo" type="string"></SimpleField>
	<SimpleField name="tessellate" type="string"></SimpleField>
	<SimpleField name="extrude" type="string"></SimpleField>
	<SimpleField name="visibility" type="string"></SimpleField>
	<SimpleField name="drawOrder" type="string"></SimpleField>
	<SimpleField name="icon" type="string"></SimpleField>
	<SimpleField name="descript_1" type="string"></SimpleField>
	<SimpleField name="altitude_1" type="string"></SimpleField>
	<SimpleField name="layer" type="string"></SimpleField>
	<SimpleField name="path" type="string"></SimpleField>
</Schema>
<Folder><name>study_areastudy_area_fullshp</name>
  <Placemark>
	<name>[12:Polygon]</name>
	<Style><LineStyle><color>ff0000ff</color></LineStyle><PolyStyle><fill>0</fill></PolyStyle></Style>
	<ExtendedData><SchemaData schemaUrl="#study_areastudy_area_fullshp">
		<SimpleData name="tessellate">-1</SimpleData>
		<SimpleData name="extrude">0</SimpleData>
		<SimpleData name="visibility">-1</SimpleData>
		<SimpleData name="layer">Polygons</SimpleData>
		<SimpleData name="path">MultiPolygonZ?crs=EPSG:4326&amp;field=id:string(0,0)&amp;field=Name:string(0,0)&amp;field=description:string(0,0)&amp;field=timestamp:datetime(0,0)&amp;field=begin:datetime(0,0)&amp;field=end:datetime(0,0)&amp;field=altitudeMode:string(0,0)&amp;field=tessellate:integer(0,0)&amp;field=extru</SimpleData>
	</SchemaData></ExtendedData>
      <MultiGeometry><Polygon><outerBoundaryIs><LinearRing><coordinates>83.11367548,18.19342637,0 83.11423885,18.19371291,0 83.11473745,18.19328835,0 83.11541899,18.19328458,0 83.11589412,18.19317177,0 83.11665372,18.19284853,0 83.11716031,18.19284836,0 83.11757759,18.19283893,0 83.11904067,18.19281539,0 83.11938689,18.19267251,0 83.1197829,18.19219577,0 83.12013148,18.191746,0 83.12030692,18.19140772,0 83.12047739,18.19120815,0 83.12123704,18.1907352,0 83.12203576,18.19040794,0 83.12233544,18.19035368,0 83.1230207,18.19032449,0 83.12289148,18.19000027,0 83.12293945,18.18962959,0 83.12354024,18.1885172,0 83.12407942,18.18835243,0 83.12413175,18.18775421,0 83.12409758,18.18742857,0 83.12370507,18.18743598,0 83.1233165,18.18674074,0 83.12329271,18.18651748,0 83.12316942,18.18626868,0 83.12314005,18.18591621,0 83.12315999,18.18520039,0 83.12307715,18.18452521,0 83.12386886,18.1827495,0 83.1232658,18.18229295,0 83.12296987,18.18248775,0 83.12300921,18.1826725,0 83.12266429,18.1828613,0 83.12270957,18.18318134,0 83.1231025,18.18316477,0 83.12334825,18.18289924,0 83.12345568,18.18306554,0 83.12319777,18.18343126,0 83.12281523,18.18384967,0 83.12254727,18.18377854,0 83.12176317,18.18392332,0 83.12152102,18.18374837,0 83.12133599,18.18414656,0 83.12105469,18.18400912,0 83.12100495,18.183763,0 83.12076027,18.18380367,0 83.12071544,18.18349948,0 83.12019301,18.18371953,0 83.12048632,18.18381387,0 83.12043285,18.18407976,0 83.12010367,18.18408335,0 83.12003742,18.18385276,0 83.1196583,18.18379693,0 83.11965474,18.18359992,0 83.11934005,18.1834398,0 83.11905038,18.18346321,0 83.11907216,18.18323791,0 83.11857952,18.18306688,0 83.11853952,18.18334068,0 83.11794968,18.18351683,0 83.11803448,18.18378526,0 83.11748628,18.18381033,0 83.11715851,18.18294201,0 83.11696585,18.18269957,0 83.11674243,18.1828997,0 83.1168312,18.18310302,0 83.11653037,18.18319963,0 83.11624972,18.18289007,0 83.11633338,18.1825391,0 83.11593404,18.18246791,0 83.11553193,18.18275996,0 83.11546785,18.18249102,0 83.1151269,18.18257579,0 83.11485869,18.18291034,0 83.11455566,18.18298573,0 83.11463324,18.18318485,0 83.11390544,18.18319938,0 83.11326632,18.18292756,0 83.1127339,18.18306246,0 83.11272687,18.18329934,0 83.11245411,18.18341526,0 83.11245849,18.18370171,0 83.11278043,18.18374107,0 83.11295738,18.18354301,0 83.11295556,18.1834883,0 83.11305141,18.18348612,0 83.11335555,18.18396233,0 83.11257737,18.18421238,0 83.11200232,18.18392562,0 83.11169653,18.18371513,0 83.11076481,18.18479455,0 83.11040185,18.18474177,0 83.11036291,18.18441199,0 83.1098419,18.18434154,0 83.10955937,18.1838442,0 83.10949438,18.18356157,0 83.10909609,18.18377194,0 83.10835369,18.18384332,0 83.10806082,18.18417987,0 83.10785489,18.18415314,0 83.10720125,18.18351691,0 83.1074222,18.18296369,0 83.1072038,18.18288396,0 83.1066593,18.18519675,0 83.10477988,18.18926171,0 83.10453118,18.19016503,0 83.10530353,18.19033951,0 83.10558554,18.19026125,0 83.10618087,18.19052352,0 83.10785414,18.19068924,0 83.1088469,18.19113207,0 83.10936979,18.19083628,0 83.11028669,18.19140979,0 83.11179405,18.19181074,0 83.11258682,18.19246024,0 83.11329284,18.19302652,0 83.11367548,18.19342637,0</coordinates></LinearRing></outerBoundaryIs></Polygon></MultiGeometry>
  </Placemark>
  <Placemark>
	<name>[10:Polygon]</name>
	<Style><LineStyle><color>ff0000ff</color></LineStyle><PolyStyle><fill>0</fill></PolyStyle></Style>
	<ExtendedData><SchemaData schemaUrl="#study_areastudy_area_fullshp">
		<SimpleData name="tessellate">-1</SimpleData>
		<SimpleData name="extrude">0</SimpleData>
		<SimpleData name="visibility">-1</SimpleData>
		<SimpleData name="layer">Polygons</SimpleData>
		<SimpleData name="path">MultiPolygonZ?crs=EPSG:4326&amp;field=id:string(0,0)&amp;field=Name:string(0,0)&amp;field=description:string(0,0)&amp;field=timestamp:datetime(0,0)&amp;field=begin:datetime(0,0)&amp;field=end:datetime(0,0)&amp;field=altitudeMode:string(0,0)&amp;field=tessellate:integer(0,0)&amp;field=extru</SimpleData>
	</SchemaData></ExtendedData>
      <MultiGeometry><Polygon><outerBoundaryIs><LinearRing><coordinates>83.15614052,18.15463983,0 83.15671078,18.15490088,0 83.15698003,18.15493431,0 83.15744681,18.15483622,0 83.15670801,18.15466924,0 83.15614052,18.15463983,0</coordinates></LinearRing></outerBoundaryIs></Polygon></MultiGeometry>
  </Placemark>
  <Placemark>
	<name>[6:Polygon]</name>
	<Style><LineStyle><color>ff0000ff</color></LineStyle><PolyStyle><fill>0</fill></PolyStyle></Style>
	<ExtendedData><SchemaData schemaUrl="#study_areastudy_area_fullshp">
		<SimpleData name="tessellate">-1</SimpleData>
		<SimpleData name="extrude">0</SimpleData>
		<SimpleData name="visibility">-1</SimpleData>
		<SimpleData name="layer">Polygons</SimpleData>
		<SimpleData name="path">MultiPolygonZ?crs=EPSG:4326&amp;field=id:string(0,0)&amp;field=Name:string(0,0)&amp;field=description:string(0,0)&amp;field=timestamp:datetime(0,0)&amp;field=begin:datetime(0,0)&amp;field=end:datetime(0,0)&amp;field=altitudeMode:string(0,0)&amp;field=tessellate:integer(0,0)&amp;field=extru</SimpleData>
	</SchemaData></ExtendedData>
      <MultiGeometry><Polygon><outerBoundaryIs><LinearRing><coordinates>83.16333044,18.15060852,0 83.16285749,18.14497367,0 83.16068952,18.14644302,0 83.16054022,18.14656955,0 83.15917842,18.14762962,0 83.15898995,18.14811859,0 83.15839501,18.14747584,0 83.15768738,18.14792767,0 83.15671088,18.14821953,0 83.15516552,18.14848385,0 83.15478341,18.14853538,0 83.15436866,18.14874083,0 83.15425763,18.14882624,0 83.1540915,18.14895572,0 83.15363057,18.14930952,0 83.15342013,18.14947331,0 83.15339114,18.14963358,0 83.15255389,18.14999506,0 83.15281038,18.1504851,0 83.15337768,18.15056136,0 83.15344702,18.15065031,0 83.15453795,18.15025912,0 83.15484491,18.15131789,0 83.15423748,18.15134219,0 83.15411637,18.15134738,0 83.15353405,18.15121856,0 83.1530161,18.15139746,0 83.15294231,18.15161272,0 83.15253259,18.15171229,0 83.15239608,18.15184682,0 83.15242532,18.15268435,0 83.1522502,18.15304516,0 83.15232164,18.15318226,0 83.15281407,18.1533142,0 83.15288419,18.15329148,0 83.15297526,18.15359862,0 83.15272349,18.15373264,0 83.15267773,18.15408897,0 83.15237906,18.15405681,0 83.15203807,18.15421867,0 83.15205871,18.15434694,0 83.15132001,18.15484208,0 83.15122172,18.1549721,0 83.15056283,18.15510751,0 83.15049092,18.15499449,0 83.14986716,18.15437352,0 83.14962317,18.15446622,0 83.14964068,18.15454165,0 83.14927506,18.15456299,0 83.14903974,18.15474718,0 83.14883612,18.15543941,0 83.14893934,18.15577833,0 83.14906229,18.15658851,0 83.15003643,18.15610402,0 83.15037141,18.15622619,0 83.15110464,18.15618965,0 83.15127153,18.1565298,0 83.15173642,18.15653271,0 83.1517768,18.15713223,0 83.15199172,18.15720946,0 83.15228656,18.1571218,0 83.15243828,18.15687509,0 83.15224474,18.15669071,0 83.15271994,18.1562067,0 83.15361016,18.15587483,0 83.15374273,18.1561311,0 83.15345403,18.15612957,0 83.15348733,18.15636159,0 83.15351438,18.15648795,0 83.15411083,18.15689527,0 83.15435412,18.15673557,0 83.15484299,18.15620717,0 83.15531247,18.15594751,0 83.15584697,18.15575521,0 83.1560264,18.15475054,0 83.15599589,18.15424891,0 83.1555613,18.15425462,0 83.15529578,18.15439365,0 83.15532147,18.15422579,0 83.15541022,18.15354209,0 83.15597181,18.15355863,0 83.15611913,18.15334256,0 83.15645216,18.15335304,0 83.15660732,18.15320754,0 83.15670636,18.15307065,0 83.15609998,18.15317566,0 83.15543356,18.15317396,0 83.15544449,18.1530284,0 83.15508466,18.15299611,0 83.15502442,18.1525854,0 83.15505587,18.15233453,0 83.15524877,18.15232643,0 83.15568314,18.15201854,0 83.15593403,18.15208225,0 83.1562224,18.15215025,0 83.15672954,18.15205288,0 83.15728624,18.15212597,0 83.15732157,18.15224295,0 83.15750324,18.15244422,0 83.15773963,18.1524412,0 83.1579759,18.15247844,0 83.15819573,18.1525143,0 83.15843554,18.15255088,0 83.15847342,18.15263327,0 83.15893069,18.15273247,0 83.15932616,18.15268311,0 83.15908758,18.15173077,0 83.16045741,18.151263,0 83.16333044,18.15060852,0</coordinates></LinearRing></outerBoundaryIs></Polygon></MultiGeometry>
  </Placemark>
  <Placemark>
	<name>[12:Polygon]</name>
	<Style><LineStyle><color>ff0000ff</color></LineStyle><PolyStyle><fill>0</fill></PolyStyle></Style>
	<ExtendedData><SchemaData schemaUrl="#study_areastudy_area_fullshp">
		<SimpleData name="tessellate">-1</SimpleData>
		<SimpleData name="extrude">0</SimpleData>
		<SimpleData name="visibility">-1</SimpleData>
		<SimpleData name="layer">Polygons</SimpleData>
		<SimpleData name="path">MultiPolygonZ?crs=EPSG:4326&amp;field=id:string(0,0)&amp;field=Name:string(0,0)&amp;field=description:string(0,0)&amp;field=timestamp:datetime(0,0)&amp;field=begin:datetime(0,0)&amp;field=end:datetime(0,0)&amp;field=altitudeMode:string(0,0)&amp;field=tessellate:integer(0,0)&amp;field=extru</SimpleData>
	</SchemaData></ExtendedData>
      <MultiGeometry><Polygon><outerBoundaryIs><LinearRing><coordinates>83.1632664,18.16478166,0 83.16307994,18.16490418,0 83.16437662,18.16405216,0 83.16417358,18.16252365,0 83.16400683,18.16264775,0 83.16385092,18.16245631,0 83.1641081,18.16222775,0 83.16423383,18.1618428,0 83.16406335,18.16160362,0 83.16269448,18.16168151,0 83.15987975,18.16205838,0 83.15997843,18.16251498,0 83.1596989,18.16263336,0 83.15984065,18.16365231,0 83.16000739,18.16370102,0 83.15980772,18.16462096,0 83.15917744,18.16471118,0 83.15890836,18.16371581,0 83.15828686,18.16389052,0 83.15814131,18.1641231,0 83.15755796,18.16426395,0 83.15760702,18.16400128,0 83.15786984,18.16354459,0 83.15889105,18.16250569,0 83.15856367,18.16225576,0 83.15731413,18.1624687,0 83.15716296,18.16215642,0 83.15697448,18.16212652,0 83.15677633,18.16209966,0 83.15653004,18.16227848,0 83.15583599,18.16196737,0 83.15556491,18.16242706,0 83.15537223,18.16195184,0 83.15475559,18.16224522,0 83.15471457,18.1617925,0 83.15453015,18.16183843,0 83.15443844,18.16197918,0 83.15374123,18.16225584,0 83.15407126,18.16028444,0 83.15407162,18.16028227,0 83.15317188,18.16170979,0 83.15276468,18.16191877,0 83.15209093,18.16210005,0 83.15211197,18.16367916,0 83.15149788,18.16360451,0 83.1515899,18.16206956,0 83.15147246,18.16172324,0 83.15114678,18.1617215,0 83.15119553,18.16205473,0 83.15029645,18.16200851,0 83.15017233,18.16235405,0 83.14981324,18.16246178,0 83.14974073,18.16266876,0 83.14939502,18.1627767,0 83.14868848,18.16298112,0 83.14841296,18.16256568,0 83.14743402,18.16281587,0 83.14736107,18.16241121,0 83.14804378,18.16222806,0 83.14807851,18.1617709,0 83.14767829,18.16106578,0 83.14680887,18.16138312,0 83.14651068,18.16041936,0 83.14667385,18.15978679,0 83.14555763,18.16011336,0 83.14571468,18.16033862,0 83.14526185,18.16089802,0 83.14511747,18.16122179,0 83.14458268,18.16149257,0 83.14364506,18.1614583,0 83.14294905,18.16109968,0 83.14256728,18.16202765,0 83.14198357,18.16295903,0 83.14172227,18.16355055,0 83.14167222,18.16345582,0 83.14155286,18.16339037,0 83.14077526,18.16360828,0 83.14060724,18.16366617,0 83.14045804,18.1639315,0 83.14045376,18.16443466,0 83.1405422,18.16502146,0 83.14037117,18.16561422,0 83.14027336,18.16612322,0 83.13995482,18.16660786,0 83.1398807,18.16680805,0 83.13959953,18.16705221,0 83.13944255,18.16725607,0 83.13929132,18.16777321,0 83.13925529,18.16781654,0 83.13911855,18.16773531,0 83.13881803,18.16824547,0 83.13852913,18.16876157,0 83.13848468,18.16891054,0 83.13848886,18.16902514,0 83.13851103,18.16910219,0 83.13859487,18.16933435,0 83.13860136,18.16933776,0 83.13873164,18.16929891,0 83.13879459,18.169278,0 83.1388859,18.16924702,0 83.13910131,18.16917558,0 83.13920775,18.16913987,0 83.13932375,18.16910451,0 83.13943844,18.16907076,0 83.1395971,18.16902389,0 83.13977568,18.1689725,0 83.14064139,18.16887768,0 83.14172109,18.16887728,0 83.1418465,18.16888486,0 83.1419123,18.16888907,0 83.14208603,18.16889721,0 83.14216045,18.16890074,0 83.14225539,18.16890556,0 83.14239404,18.16891045,0 83.14251901,18.16891499,0 83.14264101,18.16891989,0 83.14278348,18.16892549,0 83.14282406,18.16892832,0 83.14306022,18.16893651,0 83.14312653,18.16893922,0 83.14320304,18.16894193,0 83.14331994,18.16894615,0 83.14341509,18.16894991,0 83.14356796,18.16895616,0 83.1437354,18.16896262,0 83.14387644,18.16896694,0 83.1440354,18.16897106,0 83.14418429,18.1689761,0 83.14436594,18.16898184,0 83.14451352,18.16898638,0 83.14464149,18.16898938,0 83.14476968,18.16900194,0 83.14495813,18.16901528,0 83.14757966,18.16922964,0 83.14763075,18.16833042,0 83.14831102,18.16821373,0 83.14833387,18.16756212,0 83.14834274,18.16736091,0 83.14834401,18.16734592,0 83.1492476,18.16735211,0 83.1504173,18.16736477,0 83.15041568,18.1680078,0 83.15183029,18.16801101,0 83.15258036,18.16803759,0 83.15299316,18.16805323,0 83.15311696,18.16804985,0 83.15318125,18.16804835,0 83.15316406,18.1688319,0 83.15316349,18.16885146,0 83.15315707,18.16914207,0 83.15319566,18.16981997,0 83.15319303,18.16988378,0 83.15322233,18.17040415,0 83.15331354,18.17043037,0 83.15352182,18.17049983,0 83.15387646,18.1706287,0 83.15473451,18.17090291,0 83.15489527,18.17095452,0 83.15520091,18.17104628,0 83.15536758,18.17110893,0 83.15549012,18.17115089,0 83.15563781,18.17120041,0 83.15578678,18.17124983,0 83.15595683,18.17130922,0 83.15614479,18.17137109,0 83.15633191,18.17143464,0 83.15726478,18.17162994,0 83.15740085,18.17165486,0 83.15789953,18.17175819,0 83.15829363,18.17182932,0 83.15863008,18.1718815,0 83.15878871,18.17190099,0 83.15915191,18.1719513,0 83.15950099,18.17199951,0 83.15972159,18.17203271,0 83.15986712,18.17205416,0 83.16017547,18.17210878,0 83.16028911,18.1721295,0 83.16067736,18.17222001,0 83.16097824,18.17231906,0 83.16111723,18.17236187,0 83.16136486,18.17246146,0 83.16163153,18.17260165,0 83.16193009,18.17276391,0 83.16240201,18.17304407,0 83.16260178,18.17316625,0 83.16341062,18.17357813,0 83.16371507,18.17371085,0 83.16405942,18.17385465,0 83.16436446,18.17398702,0 83.16492611,18.1742233,0 83.1651679,18.17432361,0 83.16538093,18.1743984,0 83.16577495,18.17453311,0 83.16587931,18.17456209,0 83.16631639,18.17469347,0 83.16645878,18.17472911,0 83.16679505,18.17480758,0 83.16731018,18.17490352,0 83.16749993,18.17493054,0 83.16763866,18.17495129,0 83.1677639,18.1749623,0 83.16795064,18.17497872,0 83.16803349,18.174986,0 83.16810067,18.1746594,0 83.16845693,18.17358819,0 83.16882794,18.17289159,0 83.1692181,18.17220329,0 83.1696886,18.17126316,0 83.16985099,18.17091957,0 83.16997206,18.16988153,0 83.17000149,18.16943157,0 83.16999423,18.16928941,0 83.16970646,18.16894895,0 83.16950957,18.16880422,0 83.16936682,18.16864639,0 83.16912526,18.16844083,0 83.16878767,18.16867201,0 83.16850474,18.16885669,0 83.16834632,18.1689244,0 83.16806551,18.16884352,0 83.16799393,18.16881421,0 83.16790889,18.16879529,0 83.16761711,18.16881443,0 83.16718075,18.16923617,0 83.16696794,18.16903995,0 83.16721348,18.16850709,0 83.16747509,18.1683771,0 83.16689514,18.16776938,0 83.16675654,18.1679081,0 83.16678977,18.16817629,0 83.16652676,18.16826759,0 83.16639385,18.16793299,0 83.16613263,18.16874929,0 83.16530229,18.16874033,0 83.16493179,18.16884319,0 83.16454974,18.16879539,0 83.1644391,18.16875542,0 83.1644711,18.16801163,0 83.16399755,18.16745894,0 83.1636316,18.16662255,0 83.16310898,18.16650522,0 83.16286501,18.16563786,0 83.16267055,18.16519021,0 83.16307994,18.16490418,0 83.1632664,18.16478166,0</coordinates></LinearRing></outerBoundaryIs></Polygon></MultiGeometry>
  </Placemark>
  <Placemark>
	<name>[1:Polygon]</name>
	<Style><LineStyle><color>ff0000ff</color></LineStyle><PolyStyle><fill>0</fill></PolyStyle></Style>
	<ExtendedData><SchemaData schemaUrl="#study_areastudy_area_fullshp">
		<SimpleData name="id">0</SimpleData>
		<SimpleData name="tessellate">-1</SimpleData>
		<SimpleData name="extrude">0</SimpleData>
		<SimpleData name="visibility">-1</SimpleData>
		<SimpleData name="layer">Study_area</SimpleData>
		<SimpleData name="path">C:\Users\Blv Prasad\OneDrive - Indian Institute of Science\Samrat\SHAPE FILE\study area\Study_area.shp</SimpleData>
	</SchemaData></ExtendedData>
      <MultiGeometry><Polygon><outerBoundaryIs><LinearRing><coordinates>83.1513834573,18.1520877936,0 83.1513820011,18.1519064585,0 83.1513014911999,18.1516811954001,0 83.1510671471001,18.1517454289,0 83.1509895634001,18.1515718366999,0 83.1511259863001,18.1513969147002,0 83.1510923375001,18.1511741546001,0 83.1508617647001,18.1510825629,0 83.1508059632,18.1513651445,0 83.1503880598001,18.1512983229,0 83.1504942798,18.1516508672001,0 83.1509531667,18.1516895275,0 83.1510490689,18.1518825922,0 83.1509659144001,18.1521244157999,0 83.1513834573,18.1520877936,0</coordinates></LinearRing></outerBoundaryIs></Polygon></MultiGeometry>
  </Placemark>
  <Placemark>
	<name>[4:Polygon]</name>
	<Style><LineStyle><color>ff0000ff</color></LineStyle><PolyStyle><fill>0</fill></PolyStyle></Style>
	<ExtendedData><SchemaData schemaUrl="#study_areastudy_area_fullshp">
		<SimpleData name="id">0</SimpleData>
		<SimpleData name="tessellate">-1</SimpleData>
		<SimpleData name="extrude">0</SimpleData>
		<SimpleData name="visibility">-1</SimpleData>
		<SimpleData name="layer">Study_area</SimpleData>
		<SimpleData name="path">C:\Users\Blv Prasad\OneDrive - Indian Institute of Science\Samrat\SHAPE FILE\study area\Study_area.shp</SimpleData>
	</SchemaData></ExtendedData>
      <MultiGeometry><Polygon><outerBoundaryIs><LinearRing><coordinates>83.1594280825002,18.1563365789001,0 83.1602900487002,18.1564375941001,0 83.1595050692,18.1534549791999,0 83.1589351185001,18.1536871623,0 83.1589053978,18.1538597689999,0 83.1590543514,18.1542051444,0 83.1587502152001,18.1542816043,0 83.1584818968,18.1546298022001,0 83.1582439917,18.1551750673,0 83.1584019093001,18.1552196036,0 83.1585021910001,18.1554874832001,0 83.1587466482,18.1555376716999,0 83.1592953424,18.1557749357998,0 83.1593294335001,18.1561460564999,0 83.1594280825002,18.1563365789001,0</coordinates></LinearRing></outerBoundaryIs></Polygon></MultiGeometry>
  </Placemark>
  <Placemark>
	<name>[7:Polygon]</name>
	<Style><LineStyle><color>ff0000ff</color></LineStyle><PolyStyle><fill>0</fill></PolyStyle></Style>
	<ExtendedData><SchemaData schemaUrl="#study_areastudy_area_fullshp">
		<SimpleData name="id">0</SimpleData>
		<SimpleData name="tessellate">-1</SimpleData>
		<SimpleData name="extrude">0</SimpleData>
		<SimpleData name="visibility">-1</SimpleData>
		<SimpleData name="layer">Study_area</SimpleData>
		<SimpleData name="path">C:\Users\Blv Prasad\OneDrive - Indian Institute of Science\Samrat\SHAPE FILE\study area\Study_area.shp</SimpleData>
	</SchemaData></ExtendedData>
      <MultiGeometry><Polygon><outerBoundaryIs><LinearRing><coordinates>83.1739328699001,18.1709872942,0 83.1744106877001,18.1718152446,0 83.1747134919001,18.1717930061,0 83.1742562926999,18.1701534501999,0 83.1742490612001,18.1708978173,0 83.1739328699001,18.1709872942,0</coordinates></LinearRing></outerBoundaryIs></Polygon></MultiGeometry>
  </Placemark>
  <Placemark>
	<name>[8:Polygon]</name>
	<Style><LineStyle><color>ff0000ff</color></LineStyle><PolyStyle><fill>0</fill></PolyStyle></Style>
	<ExtendedData><SchemaData schemaUrl="#study_areastudy_area_fullshp">
		<SimpleData name="id">0</SimpleData>
		<SimpleData name="tessellate">-1</SimpleData>
		<SimpleData name="extrude">0</SimpleData>
		<SimpleData name="visibility">-1</SimpleData>
		<SimpleData name="layer">Study_area</SimpleData>
		<SimpleData name="path">C:\Users\Blv Prasad\OneDrive - Indian Institute of Science\Samrat\SHAPE FILE\study area\Study_area.shp</SimpleData>
	</SchemaData></ExtendedData>
      <MultiGeometry><Polygon><outerBoundaryIs><LinearRing><coordinates>83.1744755740001,18.1724628483002,0 83.1744106877001,18.1718152446,0 83.1738957051,18.1720566805999,0 83.1733995051999,18.1722038405001,0 83.1725076729001,18.1723816130003,0 83.1723439557001,18.172384686,0 83.1723316338001,18.1731085884,0 83.1715318257,18.1731480800999,0 83.1712454325,18.1730745927999,0 83.1711786797001,18.1732457805001,0 83.1708360913,18.1731547572998,0 83.1705643211001,18.1745664717001,0 83.1730770438001,18.1740073742,0 83.1745982066,18.1734419492003,0 83.1743802373001,18.1724830229001,0 83.1744755740001,18.1724628483002,0</coordinates></LinearRing></outerBoundaryIs></Polygon></MultiGeometry>
  </Placemark>
  <Placemark>
	<name>[9:Polygon]</name>
	<Style><LineStyle><color>ff0000ff</color></LineStyle><PolyStyle><fill>0</fill></PolyStyle></Style>
	<ExtendedData><SchemaData schemaUrl="#study_areastudy_area_fullshp">
		<SimpleData name="id">0</SimpleData>
		<SimpleData name="tessellate">-1</SimpleData>
		<SimpleData name="extrude">0</SimpleData>
		<SimpleData name="visibility">-1</SimpleData>
		<SimpleData name="layer">Study_area</SimpleData>
		<SimpleData name="path">C:\Users\Blv Prasad\OneDrive - Indian Institute of Science\Samrat\SHAPE FILE\study area\Study_area.shp</SimpleData>
	</SchemaData></ExtendedData>
      <MultiGeometry><Polygon><outerBoundaryIs><LinearRing><coordinates>83.1700881563,18.1746736857001,0 83.1702454901,18.1735674337999,0 83.1691179050001,18.1734456225002,0 83.1686557173001,18.1748228491002,0 83.1688762591,18.1748317871001,0 83.1700881563,18.1746736857001,0</coordinates></LinearRing></outerBoundaryIs></Polygon></MultiGeometry>
  </Placemark>
  <Placemark>
	<name>[11:Polygon]</name>
	<Style><LineStyle><color>ff0000ff</color></LineStyle><PolyStyle><fill>0</fill></PolyStyle></Style>
	<ExtendedData><SchemaData schemaUrl="#study_areastudy_area_fullshp">
		<SimpleData name="id">0</SimpleData>
		<SimpleData name="tessellate">-1</SimpleData>
		<SimpleData name="extrude">0</SimpleData>
		<SimpleData name="visibility">-1</SimpleData>
		<SimpleData name="layer">Study_area</SimpleData>
		<SimpleData name="path">C:\Users\Blv Prasad\OneDrive - Indian Institute of Science\Samrat\SHAPE FILE\study area\Study_area.shp</SimpleData>
	</SchemaData></ExtendedData>
      <MultiGeometry><Polygon><outerBoundaryIs><LinearRing><coordinates>83.1163764284,18.177585938,0 83.1172649578,18.1772338677,0 83.1177126915001,18.1769318695,0 83.11824952,18.1769042580001,0 83.1195614073,18.1761201592002,0 83.1199045077,18.1758496827001,0 83.1201772283,18.1751968204999,0 83.1201006243001,18.1749572154001,0 83.1195912021001,18.1748837395,0 83.1195106540001,18.1747043784,0 83.1194861910001,18.1744987487001,0 83.1194983142,18.1745022199,0 83.1199664504001,18.1742127747999,0 83.1200710269,18.1740432775001,0 83.1204107545,18.1740128638998,0 83.1204514393,18.1738429104002,0 83.1199030294,18.1729648418,0 83.1200243025,18.1727536199999,0 83.1200782556001,18.1724158223,0 83.1202607824,18.1719215999,0 83.1205797159001,18.1716916404,0 83.1209718390001,18.1716596587,0 83.1207681250001,18.1709057082,0 83.1202635408001,18.1711019658001,0 83.120199969,18.1709779141999,0 83.1198087296001,18.1711138662999,0 83.1198741804,18.1715072082001,0 83.1199908710001,18.1716713711001,0 83.1197580320002,18.1718093154999,0 83.1195414375001,18.1721430107999,0 83.1190306647002,18.1722906012,0 83.1189421123,18.1724066529,0 83.1188837376001,18.1723659523002,0 83.1193803449,18.1717111615,0 83.1193990063001,18.1714101919001,0 83.1191614235001,18.1712182533002,0 83.1184946256,18.1720811279,0 83.1180189933,18.1718679556998,0 83.1170031082001,18.1733723550999,0 83.1167094116266,18.1736673089714,0 83.1164105098001,18.1739674889999,0 83.1159582821536,18.1743713073275,0 83.1157244376002,18.1745801186,0 83.1155766083,18.1747377613,0 83.115219870471,18.1754738652683,0 83.1150090192605,18.1759089394025,0 83.1147746257786,18.1763493929708,0 83.1144279484,18.1770637437,0 83.1144143126,18.1771189775,0 83.1145998496,18.1772798914999,0 83.1150062402001,18.1775403662002,0 83.1154447238001,18.1772452443,0 83.1154292843002,18.1772154306001,0 83.1157902329,18.1771257115,0 83.1163037025,18.177194125,0 83.1162132539001,18.1772278949,0 83.1162210526001,18.1775308044998,0 83.1163764284,18.177585938,0</coordinates></LinearRing></outerBoundaryIs></Polygon></MultiGeometry>
  </Placemark>
</Folder>
</Document></kml>
